{
    "links": {
        "self": "http://www.neowsapp.com/rest/v1/neo/3428701?api_key=iIulBulltgU6a56xZRHN4H3l9WmuAYTsLGpBGhQ2"
    },
    "id": "3428701",
    "neo_reference_id": "3428701",
    "name": "(2008 TG)",
    "designation": "2008 TG",
    "nasa_jpl_url": "http://ssd.jpl.nasa.gov/sbdb.cgi?sstr=3428701",
    "absolute_magnitude_h": 23.0,
    "estimated_diameter": {
        "kilometers": {
            "estimated_diameter_min": 0.0667659413,
            "estimated_diameter_max": 0.1492931834
        },
        "meters": {
            "estimated_diameter_min": 66.7659413495,
            "estimated_diameter_max": 149.2931834393
        },
        "miles": {
            "estimated_diameter_min": 0.0414864197,
            "estimated_diameter_max": 0.0927664547
        },
        "feet": {
            "estimated_diameter_min": 219.0483710172,
            "estimated_diameter_max": 489.807047955
        }
    },
    "is_potentially_hazardous_asteroid": false,
    "close_approach_data": [
        {
            "close_approach_date": "2008-09-02",
            "close_approach_date_full": "2008-Sep-02 06:13",
            "epoch_date_close_approach": 1220335980000,
            "relative_velocity": {
                "kilometers_per_second": "4.4954458833",
                "kilometers_per_hour": "16183.6051797074",
                "miles_per_hour": "10055.8628962465"
            },
            "miss_distance": {
                "astronomical": "0.1786560069",
                "lunar": "69.4971866841",
                "kilometers": "26726558.094945303",
                "miles": "16607113.1181310614"
            },
            "orbiting_body": "Earth"
        }
    ],
    "orbital_data": {
        "orbit_id": "12",
        "orbit_determination_date": "2017-04-06 09:02:45",
        "first_observation_date": "2008-10-01",
        "last_observation_date": "2008-10-20",
        "data_arc_in_days": 19,
        "observations_used": 30,
        "orbit_uncertainty": "8",
        "minimum_orbit_intersection": ".175474",
        "jupiter_tisserand_invariant": "3.230",
        "epoch_osculation": "2454747.5",
        "eccentricity": ".5346730419408868",
        "semi_major_axis": "2.538231141602473",
        "inclination": "1.685235044133244",
        "ascending_node_longitude": "243.8593447582475",
        "orbital_period": "1477.049939306317",
        "perihelion_distance": "1.181107375972789",
        "perihelion_argument": "99.37367572539533",
        "aphelion_distance": "3.895354907232158",
        "perihelion_time": "2454713.195700032833",
        "mean_anomaly": "8.36095494102249",
        "mean_motion": ".2437290645494835",
        "equinox": "J2000",
        "orbit_class": {
            "orbit_class_type": "AMO",
            "orbit_class_description": "Near-Earth asteroid orbits similar to that of 1221 Amor",
            "orbit_class_range": "1.017 AU < q (perihelion) < 1.3 AU"
        }
    },
    "is_sentry_object": false
}